[{"CCSDS_OMM_VERS":"3.0","COMMENT":"GENERATED VIA SPACE-TRACK.ORG API","CREATION_DATE":"2026-03-28T16:56:20","ORIGINATOR":"18 SPCS","OBJECT_NAME":"FENGYUN 1C DEB","OBJECT_ID":"1999-025AED","CENTER_NAME":"EARTH","REF_FRAME":"TEME","TIME_SYSTEM":"UTC","MEAN_ELEMENT_THEORY":"SGP4","EPOCH":"2026-03-28T09:36:24.224832","MEAN_MOTION":"14.35629599","ECCENTRICITY":"0.00567830","INCLINATION":"99.0879","RA_OF_ASC_NODE":"255.1079","ARG_OF_PERICENTER":"237.8203","MEAN_ANOMALY":"121.7466","EPHEMERIS_TYPE":"0","CLASSIFICATION_TYPE":"U","NORAD_CAT_ID":"30414","ELEMENT_SET_NO":"999","REV_AT_EPOCH":"98602","BSTAR":"0.00222390000000","MEAN_MOTION_DOT":"0.00006489","MEAN_MOTION_DDOT":"0.0000000000000","SEMIMAJOR_AXIS":"7151.112","PERIOD":"100.304","APOAPSIS":"813.583","PERIAPSIS":"732.371","OBJECT_TYPE":"DEBRIS","RCS_SIZE":"SMALL","COUNTRY_CODE":"PRC","LAUNCH_DATE":"1999-05-10","SITE":"TSC","DECAY_DATE":null,"FILE":"5104249","GP_ID":"317438242","TLE_LINE0":"0 FENGYUN 1C DEB","TLE_LINE1":"1 30414U 99025AED 26087.40028038  .00006489  00000-0  22239-2 0  9992","TLE_LINE2":"2 30414  99.0879 255.1079 0056783 237.8203 121.7466 14.35629599986024"},{"CCSDS_OMM_VERS":"3.0","COMMENT":"GENERATED VIA SPACE-TRACK.ORG API","CREATION_DATE":"2026-03-28T16:56:20","ORIGINATOR":"18 SPCS","OBJECT_NAME":"FENGYUN 1C DEB","OBJECT_ID":"1999-025AEE","CENTER_NAME":"EARTH","REF_FRAME":"TEME","TIME_SYSTEM":"UTC","MEAN_ELEMENT_THEORY":"SGP4","EPOCH":"2026-03-28T10:33:36.456192","MEAN_MOTION":"13.69307652","ECCENTRICITY":"0.02337290","INCLINATION":"99.6365","RA_OF_ASC_NODE":"152.8118","ARG_OF_PERICENTER":"358.9440","MEAN_ANOMALY":"121.8831","EPHEMERIS_TYPE":"0","CLASSIFICATION_TYPE":"U","NORAD_CAT_ID":"30415","ELEMENT_SET_NO":"999","REV_AT_EPOCH":"95324","BSTAR":"0.00126040000000","MEAN_MOTION_DOT":"0.00001280","MEAN_MOTION_DDOT":"0.0000000000000","SEMIMAJOR_AXIS":"7380.195","PERIOD":"105.163","APOAPSIS":"1174.556","PERIAPSIS":"829.563","OBJECT_TYPE":"DEBRIS","RCS_SIZE":"SMALL","COUNTRY_CODE":"PRC","LAUNCH_DATE":"1999-05-10","SITE":"TSC","DECAY_DATE":null,"FILE":"5104249","GP_ID":"317437743","TLE_LINE0":"0 FENGYUN 1C DEB","TLE_LINE1":"1 30415U 99025AEE 26087.44000528  .00001280  00000-0  12604-2 0  9990","TLE_LINE2":"2 30415  99.6365 152.8118 0233729 358.9440 121.8831 13.69307652953247"},{"CCSDS_OMM_VERS":"3.0","COMMENT":"GENERATED VIA SPACE-TRACK.ORG API","CREATION_DATE":"2026-03-28T16:56:20","ORIGINATOR":"18 SPCS","OBJECT_NAME":"FENGYUN 1C DEB","OBJECT_ID":"1999-025AEF","CENTER_NAME":"EARTH","REF_FRAME":"TEME","TIME_SYSTEM":"UTC","MEAN_ELEMENT_THEORY":"SGP4","EPOCH":"2026-03-28T07:02:10.448736","MEAN_MOTION":"14.02716484","ECCENTRICITY":"0.00544160","INCLINATION":"98.8245","RA_OF_ASC_NODE":"113.5084","ARG_OF_PERICENTER":"255.3270","MEAN_ANOMALY":"104.1860","EPHEMERIS_TYPE":"0","CLASSIFICATION_TYPE":"U","NORAD_CAT_ID":"30416","ELEMENT_SET_NO":"999","REV_AT_EPOCH":"98104","BSTAR":"0.00032685000000","MEAN_MOTION_DOT":"0.00000468","MEAN_MOTION_DDOT":"0.0000000000000","SEMIMAJOR_AXIS":"7262.541","PERIOD":"102.658","APOAPSIS":"923.925","PERIAPSIS":"844.886","OBJECT_TYPE":"DEBRIS","RCS_SIZE":"SMALL","COUNTRY_CODE":"PRC","LAUNCH_DATE":"1999-05-10","SITE":"TSC","DECAY_DATE":null,"FILE":"5104249","GP_ID":"317438243","TLE_LINE0":"0 FENGYUN 1C DEB","TLE_LINE1":"1 30416U 99025AEF 26087.29317649  .00000468  00000-0  32685-3 0  9998","TLE_LINE2":"2 30416  98.8245 113.5084 0054416 255.3270 104.1860 14.02716484981047"},{"CCSDS_OMM_VERS":"3.0","COMMENT":"GENERATED VIA SPACE-TRACK.ORG API","CREATION_DATE":"2026-03-28T16:56:20","ORIGINATOR":"18 SPCS","OBJECT_NAME":"FENGYUN 1C DEB","OBJECT_ID":"1999-025AEG","CENTER_NAME":"EARTH","REF_FRAME":"TEME","TIME_SYSTEM":"UTC","MEAN_ELEMENT_THEORY":"SGP4","EPOCH":"2026-03-28T10:37:48.809856","MEAN_MOTION":"14.14801724","ECCENTRICITY":"0.00635010","INCLINATION":"98.7038","RA_OF_ASC_NODE":"79.7277","ARG_OF_PERICENTER":"177.4339","MEAN_ANOMALY":"336.3881","EPHEMERIS_TYPE":"0","CLASSIFICATION_TYPE":"U","NORAD_CAT_ID":"30417","ELEMENT_SET_NO":"999","REV_AT_EPOCH":"98883","BSTAR":"0.00024729000000","MEAN_MOTION_DOT":"0.00000443","MEAN_MOTION_DDOT":"0.0000000000000","SEMIMAJOR_AXIS":"7221.124","PERIOD":"101.781","APOAPSIS":"888.844","PERIAPSIS":"797.134","OBJECT_TYPE":"DEBRIS","RCS_SIZE":"SMALL","COUNTRY_CODE":"PRC","LAUNCH_DATE":"1999-05-10","SITE":"TSC","DECAY_DATE":null,"FILE":"5104249","GP_ID":"317437744","TLE_LINE0":"0 FENGYUN 1C DEB","TLE_LINE1":"1 30417U 99025AEG 26087.44292604  .00000443  00000-0  24729-3 0  9992","TLE_LINE2":"2 30417  98.7038  79.7277 0063501 177.4339 336.3881 14.14801724988830"},{"CCSDS_OMM_VERS":"3.0","COMMENT":"GENERATED VIA SPACE-TRACK.ORG API","CREATION_DATE":"2026-03-28T16:56:20","ORIGINATOR":"18 SPCS","OBJECT_NAME":"FENGYUN 1C DEB","OBJECT_ID":"1999-025AEH","CENTER_NAME":"EARTH","REF_FRAME":"TEME","TIME_SYSTEM":"UTC","MEAN_ELEMENT_THEORY":"SGP4","EPOCH":"2026-03-28T10:39:24.566112","MEAN_MOTION":"14.86110331","ECCENTRICITY":"0.01077230","INCLINATION":"98.8513","RA_OF_ASC_NODE":"263.8437","ARG_OF_PERICENTER":"138.8236","MEAN_ANOMALY":"252.3753","EPHEMERIS_TYPE":"0","CLASSIFICATION_TYPE":"U","NORAD_CAT_ID":"30418","ELEMENT_SET_NO":"999","REV_AT_EPOCH":"2161","BSTAR":"0.00117300000000","MEAN_MOTION_DOT":"0.00011363","MEAN_MOTION_DDOT":"0.0000000000000","SEMIMAJOR_AXIS":"6988.240","PERIOD":"96.897","APOAPSIS":"685.384","PERIAPSIS":"534.825","OBJECT_TYPE":"DEBRIS","RCS_SIZE":"SMALL","COUNTRY_CODE":"PRC","LAUNCH_DATE":"1999-05-10","SITE":"TSC","DECAY_DATE":null,"FILE":"5104250","GP_ID":"317437751","TLE_LINE0":"0 FENGYUN 1C DEB","TLE_LINE1":"1 30418U 99025AEH 26087.44403433  .00011363  00000-0  11730-2 0  9997","TLE_LINE2":"2 30418  98.8513 263.8437 0107723 138.8236 252.3753 14.86110331 21611"},{"CCSDS_OMM_VERS":"3.0","COMMENT":"GENERATED VIA SPACE-TRACK.ORG API","CREATION_DATE":"2026-03-28T16:56:20","ORIGINATOR":"18 SPCS","OBJECT_NAME":"FENGYUN 1C DEB","OBJECT_ID":"1999-025AEJ","CENTER_NAME":"EARTH","REF_FRAME":"TEME","TIME_SYSTEM":"UTC","MEAN_ELEMENT_THEORY":"SGP4","EPOCH":"2026-03-28T08:18:48.204000","MEAN_MOTION":"14.18408378","ECCENTRICITY":"0.00528390","INCLINATION":"99.2517","RA_OF_ASC_NODE":"43.4967","ARG_OF_PERICENTER":"85.2830","MEAN_ANOMALY":"75.3510","EPHEMERIS_TYPE":"0","CLASSIFICATION_TYPE":"U","NORAD_CAT_ID":"30419","ELEMENT_SET_NO":"999","REV_AT_EPOCH":"98845","BSTAR":"0.00065269000000","MEAN_MOTION_DOT":"0.00001318","MEAN_MOTION_DDOT":"0.0000000000000","SEMIMAJOR_AXIS":"7208.878","PERIOD":"101.522","APOAPSIS":"868.834","PERIAPSIS":"792.652","OBJECT_TYPE":"DEBRIS","RCS_SIZE":"SMALL","COUNTRY_CODE":"PRC","LAUNCH_DATE":"1999-05-10","SITE":"TSC","DECAY_DATE":null,"FILE":"5104250","GP_ID":"317438251","TLE_LINE0":"0 FENGYUN 1C DEB","TLE_LINE1":"1 30419U 99025AEJ 26087.34639125  .00001318  00000-0  65269-3 0  9992","TLE_LINE2":"2 30419  99.2517  43.4967 0052839  85.2830  75.3510 14.18408378988457"},{"CCSDS_OMM_VERS":"3.0","COMMENT":"GENERATED VIA SPACE-TRACK.ORG API","CREATION_DATE":"2025-10-19T10:30:26","ORIGINATOR":"18 SPCS","OBJECT_NAME":"FENGYUN 1C DEB","OBJECT_ID":"1999-025AEK","CENTER_NAME":"EARTH","REF_FRAME":"TEME","TIME_SYSTEM":"UTC","MEAN_ELEMENT_THEORY":"SGP4","EPOCH":"2025-10-19T03:55:50.164320","MEAN_MOTION":"16.17736347","ECCENTRICITY":"0.00090877","INCLINATION":"98.8829","RA_OF_ASC_NODE":"9.0882","ARG_OF_PERICENTER":"251.5422","MEAN_ANOMALY":"108.4873","EPHEMERIS_TYPE":"0","CLASSIFICATION_TYPE":"U","NORAD_CAT_ID":"30420","ELEMENT_SET_NO":"999","REV_AT_EPOCH":"782","BSTAR":"0.00369711130000","MEAN_MOTION_DOT":"0.05909770","MEAN_MOTION_DDOT":"0.0000033420650","SEMIMAJOR_AXIS":"6603.842","PERIOD":"89.013","APOAPSIS":"231.708","PERIAPSIS":"219.706","OBJECT_TYPE":"DEBRIS","RCS_SIZE":"SMALL","COUNTRY_CODE":"PRC","LAUNCH_DATE":"1999-05-10","SITE":"TSC","DECAY_DATE":"2025-10-20","FILE":"4849597","GP_ID":"300488856","TLE_LINE0":"0 FENGYUN 1C DEB","TLE_LINE1":"1 30420U 99025AEK 25292.16377505  .05909770  33421-5  36971-2 0  9991","TLE_LINE2":"2 30420  98.8829   9.0882 0009088 251.5422 108.4873 16.17736347  7821"},{"CCSDS_OMM_VERS":"3.0","COMMENT":"GENERATED VIA SPACE-TRACK.ORG API","CREATION_DATE":"2015-05-15T20:07:24","ORIGINATOR":"18 SPCS","OBJECT_NAME":"FENGYUN 1C DEB","OBJECT_ID":"1999-025AEL","CENTER_NAME":"EARTH","REF_FRAME":"TEME","TIME_SYSTEM":"UTC","MEAN_ELEMENT_THEORY":"SGP4","EPOCH":"2015-05-12T12:37:29.520767","MEAN_MOTION":"16.16005638","ECCENTRICITY":"0.00170440","INCLINATION":"99.0302","RA_OF_ASC_NODE":"44.6772","ARG_OF_PERICENTER":"186.5278","MEAN_ANOMALY":"182.6973","EPHEMERIS_TYPE":"0","CLASSIFICATION_TYPE":"U","NORAD_CAT_ID":"30421","ELEMENT_SET_NO":"999","REV_AT_EPOCH":"43882","BSTAR":"0.02047500000000","MEAN_MOTION_DOT":"0.29440966","MEAN_MOTION_DDOT":"0.0000033438000","SEMIMAJOR_AXIS":"6608.556","PERIOD":"89.108","APOAPSIS":"241.684","PERIAPSIS":"219.157","OBJECT_TYPE":"DEBRIS","RCS_SIZE":"SMALL","COUNTRY_CODE":"PRC","LAUNCH_DATE":"1999-05-10","SITE":"TSC","DECAY_DATE":"2015-05-12","FILE":"1871624","GP_ID":"99158784","TLE_LINE0":"0 FENGYUN 1C DEB","TLE_LINE1":"1 30421U 99025AEL 15132.52603612  .29440966  33438-5  20475-1 0  9997","TLE_LINE2":"2 30421 099.0302 044.6772 0017044 186.5278 182.6973 16.16005638438825"}]